{"type": "FeatureCollection", "features": [ {"type": "Feature", "properties": {"norad_id": 66911, "name": "1998-067XX", "group": "stations", "lat": 47.34100402239285, "lon": 131.20428544391618, "alt_km": 400.1542290672478, "timestamp": "2025-12-26T21:25:51.769059+00:00", "meta": {"OBJECT_NAME": "1998-067XX", "OBJECT_ID": "1998-067XX", "EPOCH": "2025-12-26T11:52:19.081920", "MEAN_MOTION": 15.53969141, "ECCENTRICITY": 0.00034926, "INCLINATION": 51.6301, "RA_OF_ASC_NODE": 73.8915, "ARG_OF_PERICENTER": 292.742, "MEAN_ANOMALY": 67.3201, "EPHEMERIS_TYPE": 0, "CLASSIFICATION_TYPE": "U", "NORAD_CAT_ID": 66911, "ELEMENT_SET_NO": 999, "REV_AT_EPOCH": 374, "BSTAR": 0.0011708767, "MEAN_MOTION_DOT": 0.00077346, "MEAN_MOTION_DDOT": 0}, "tle": {"line1": "1 66911U 98067XX  25360.49466530  .00077346  00000+0  11709-2 0  9992", "line2": "2 66911  51.6301  73.8915 0003492 292.7420  67.3201 15.53969141  3745"}}, "geometry": {"type": "Point", "coordinates": [131.20428544391618, 47.34100402239285]}}, {"type": "Feature", "properties": {"norad_id": 66912, "name": "1998-067XY", "group": "stations", "lat": -9.229710748519457, "lon": 64.6787679594695, "alt_km": 409.39794546793564, "timestamp": "2025-12-26T21:25:51.769069+00:00", "meta": {"OBJECT_NAME": "1998-067XY", "OBJECT_ID": "1998-067XY", "EPOCH": "2025-12-26T12:12:45.085824", "MEAN_MOTION": 15.52489248, "ECCENTRICITY": 0.00038231, "INCLINATION": 51.6314, "RA_OF_ASC_NODE": 73.9869, "ARG_OF_PERICENTER": 301.1826, "MEAN_ANOMALY": 58.8789, "EPHEMERIS_TYPE": 0, "CLASSIFICATION_TYPE": "U", "NORAD_CAT_ID": 66912, "ELEMENT_SET_NO": 999, "REV_AT_EPOCH": 374, "BSTAR": 0.00078444064, "MEAN_MOTION_DOT": 0.00048771, "MEAN_MOTION_DDOT": 0}, "tle": {"line1": "1 66912U 98067XY  25360.50885516  .00048771  00000+0  78444-3 0  9994", "line2": "2 66912  51.6314  73.9869 0003823 301.1826  58.8789 15.52489248  3742"}}, "geometry": {"type": "Point", "coordinates": [64.6787679594695, -9.229710748519457]}}]}